{
  "type": "FeatureCollection",
  "features": [
    {
      "type": "Feature",
      "geometry": {
        "type": "Point",
        "coordinates": [
          null,
          null
        ]
      },
      "properties": {
        "village": "",
        "district": "",
        "country": "",
        "image_url": "",
        "description": "",
        "people_helped": 0,
        "date": "",
        "built_by": "",
        "project_type": ""
      }
    },
    {
      "type": "Feature",
      "geometry": {
        "type": "Point",
        "coordinates": [
          null,
          null
        ]
      },
      "properties": {
        "village": "",
        "district": "",
        "country": "",
        "image_url": "",
        "description": "",
        "people_helped": 0,
        "date": "",
        "built_by": "",
        "project_type": ""
      }
    },
    {
      "type": "Feature",
      "geometry": {
        "type": "Point",
        "coordinates": [
          null,
          null
        ]
      },
      "properties": {
        "village": "",
        "district": "",
        "country": "",
        "image_url": "",
        "description": "",
        "people_helped": 0,
        "date": "",
        "built_by": "",
        "project_type": ""
      }
    },
    {
      "type": "Feature",
      "geometry": {
        "type": "Point",
        "coordinates": [
          null,
          null
        ]
      },
      "properties": {
        "village": "",
        "district": "",
        "country": "",
        "image_url": "",
        "description": "",
        "people_helped": 0,
        "date": "",
        "built_by": "",
        "project_type": ""
      }
    },
    {
      "type": "Feature",
      "geometry": {
        "type": "Point",
        "coordinates": [
          null,
          null
        ]
      },
      "properties": {
        "village": "",
        "district": "",
        "country": "",
        "image_url": "",
        "description": "",
        "people_helped": 0,
        "date": "",
        "built_by": "",
        "project_type": ""
      }
    },
    {
      "type": "Feature",
      "geometry": {
        "type": "Point",
        "coordinates": [
          null,
          null
        ]
      },
      "properties": {
        "village": "",
        "district": "",
        "country": "",
        "image_url": "",
        "description": "",
        "people_helped": 0,
        "date": "",
        "built_by": "",
        "project_type": ""
      }
    },
    {
      "type": "Feature",
      "geometry": {
        "type": "Point",
        "coordinates": [
          null,
          null
        ]
      },
      "properties": {
        "village": "",
        "district": "",
        "country": "",
        "image_url": "",
        "description": "",
        "people_helped": 0,
        "date": "",
        "built_by": "",
        "project_type": ""
      }
    },
    {
      "type": "Feature",
      "geometry": {
        "type": "Point",
        "coordinates": [
          null,
          null
        ]
      },
      "properties": {
        "village": "",
        "district": "",
        "country": "",
        "image_url": "",
        "description": "",
        "people_helped": 0,
        "date": "",
        "built_by": "",
        "project_type": ""
      }
    },
    {
      "type": "Feature",
      "geometry": {
        "type": "Point",
        "coordinates": [
          null,
          null
        ]
      },
      "properties": {
        "village": "",
        "district": "",
        "country": "",
        "image_url": "",
        "description": "",
        "people_helped": 0,
        "date": "",
        "built_by": "",
        "project_type": ""
      }
    },
    {
      "type": "Feature",
      "geometry": {
        "type": "Point",
        "coordinates": [
          null,
          null
        ]
      },
      "properties": {
        "village": "",
        "district": "",
        "country": "",
        "image_url": "",
        "description": "",
        "people_helped": 0,
        "date": "",
        "built_by": "",
        "project_type": ""
      }
    },
    {
      "type": "Feature",
      "geometry": {
        "type": "Point",
        "coordinates": [
          null,
          null
        ]
      },
      "properties": {
        "village": "",
        "district": "",
        "country": "",
        "image_url": "",
        "description": "",
        "people_helped": 0,
        "date": "",
        "built_by": "",
        "project_type": ""
      }
    },
    {
      "type": "Feature",
      "geometry": {
        "type": "Point",
        "coordinates": [
          null,
          null
        ]
      },
      "properties": {
        "village": "",
        "district": "",
        "country": "",
        "image_url": "",
        "description": "",
        "people_helped": 0,
        "date": "",
        "built_by": "",
        "project_type": ""
      }
    },
    {
      "type": "Feature",
      "geometry": {
        "type": "Point",
        "coordinates": [
          null,
          null
        ]
      },
      "properties": {
        "village": "",
        "district": "",
        "country": "",
        "image_url": "",
        "description": "",
        "people_helped": 0,
        "date": "",
        "built_by": "",
        "project_type": ""
      }
    },
    {
      "type": "Feature",
      "geometry": {
        "type": "Point",
        "coordinates": [
          null,
          null
        ]
      },
      "properties": {
        "village": "",
        "district": "",
        "country": "",
        "image_url": "",
        "description": "",
        "people_helped": 0,
        "date": "",
        "built_by": "",
        "project_type": ""
      }
    }
  ]
}